[{"OBJECT_NAME":"OBJECT G","OBJECT_ID":"2024-024G","EPOCH":"2026-03-09T20:28:53.132736","MEAN_MOTION":15.83306562,"ECCENTRICITY":0.00024191,"INCLINATION":97.3215,"RA_OF_ASC_NODE":161.9284,"ARG_OF_PERICENTER":77.0487,"MEAN_ANOMALY":283.1053,"EPHEMERIS_TYPE":0,"CLASSIFICATION_TYPE":"U","NORAD_CAT_ID":58923,"ELEMENT_SET_NO":999,"REV_AT_EPOCH":11779,"BSTAR":0.00058393874,"MEAN_MOTION_DOT":0.00127204,"MEAN_MOTION_DDOT":0},{"OBJECT_NAME":"STARLINK-36919","OBJECT_ID":"2026-041P","EPOCH":"2026-03-09T22:00:01.999584","MEAN_MOTION":15.92721728,"ECCENTRICITY":5.281e-5,"INCLINATION":53.1593,"RA_OF_ASC_NODE":61.0498,"ARG_OF_PERICENTER":96.0754,"MEAN_ANOMALY":255.9711,"EPHEMERIS_TYPE":0,"CLASSIFICATION_TYPE":"U","NORAD_CAT_ID":68053,"ELEMENT_SET_NO":999,"REV_AT_EPOCH":241,"BSTAR":-0.0044883758,"MEAN_MOTION_DOT":-0.01576706,"MEAN_MOTION_DDOT":0.00070606018}]
